EUTELSAT 8 WEST B       
1 40875U 15039B   26014.58660429 -.00000046  00000+0  00000+0 0  9994
2 40875   0.0645 352.6862 0004235 299.4941  25.0655  1.00272536 38117
EUTELSAT 9B             
1 41310U 16005A   26014.59007098  .00000080  00000+0  00000+0 0  9998
2 41310   0.0304  56.9732 0004354 234.2523  44.2237  1.00271306 36570
EUTELSAT 65 WEST A      
1 41382U 16014A   26014.47934672 -.00000257  00000+0  00000+0 0  9998
2 41382   0.0945 297.7041 0002111   4.4942 279.0871  1.00269624 35996
EUTELSAT 117 WEST B     
1 41589U 16038B   26012.45809241  .00000006  00000+0  00000+0 0  9993
2 41589   0.0069 160.3037 0000249 110.4100 249.1636  1.00274176 35104
EUTELSAT 172B           
1 42741U 17029B   26014.63725119  .00000013  00000+0  00000+0 0  9996
2 42741   0.0298 126.2731 0000188 310.1725  79.0454  1.00271317 32193
EUTELSAT 7C             
1 44334U 19034B   26013.51973889  .00000067  00000+0  00000+0 0  9998
2 44334   0.0765 181.3524 0003069  96.9929  28.7384  1.00271543  5284
EUTELSAT 5 WEST B       
1 44624U 19067A   26013.01818807 -.00000024  00000+0  00000+0 0  9993
2 44624   0.0750 325.2826 0002957 332.6354 176.1178  1.00270899 22888
EUTELSAT KONNECT        
1 45027U 20005B   26014.58972432  .00000068  00000+0  00000+0 0  9990
2 45027   0.0670  94.2666 0001074 189.3748  49.8997  1.00272031 22790
